     2.11           GLONASS NAV DATA                        RINEX VERSION / TYPE
cnvtToRINEX 2.30.0  convertToRINEX OPR  12-May-16 00:59 UTC PGM / RUN BY / DATE 
----------------------------------------------------------- COMMENT             
  2015     5    18    0.512227416039D-08                    CORR TO SYSTEM TIME 
    16                                                      LEAP SECONDS        
                                                            END OF HEADER       
 8 15 05 18 15 45  0.0-0.266730785370D-04 0.000000000000D+00 0.558000000000D+05
    0.216088037109D+04-0.111596107483D+00 0.465661287308D-08 0.000000000000D+00
   -0.252914335938D+05-0.373020172119D+00-0.279396772385D-08 0.600000000000D+01
    0.264675244141D+04-0.354440784454D+01 0.186264514923D-08 0.000000000000D+00
11 15 05 18 15 45  0.0 0.696443021297D-05 0.000000000000D+00 0.558000000000D+05
   -0.654124560547D+04 0.196517372131D+01 0.372529029846D-08 0.000000000000D+00
   -0.159297246094D+05 0.167356967926D+01-0.186264514923D-08 0.000000000000D+00
    0.187735908203D+05 0.211123657227D+01-0.931322574615D-09 0.000000000000D+00
 1 15 05 18 15 45  0.0-0.153687782586D-03 0.000000000000D+00 0.558000000000D+05
   -0.642698291016D+04 0.222054481506D+00 0.372529029846D-08 0.000000000000D+00
   -0.171670083008D+05-0.241943264008D+01-0.186264514923D-08 0.100000000000D+01
    0.177499033203D+05-0.225888919830D+01 0.000000000000D+00 0.000000000000D+00
10 15 05 18 15 45  0.0 0.156564638019D-04 0.000000000000D+00 0.558000000000D+05
    0.948540673828D+04 0.249945354462D+01 0.186264514923D-08 0.000000000000D+00
   -0.567327734375D+04 0.192721843719D+01-0.372529029846D-08-0.700000000000D+01
    0.229559858398D+05-0.562560081482D+00-0.931322574615D-09 0.000000000000D+00
19 15 05 18 15 45  0.0-0.125919468701D-03 0.000000000000D+00 0.558000000000D+05
    0.129883549805D+05-0.274554538727D+01 0.000000000000D+00 0.000000000000D+00
    0.554318750000D+04 0.967562675476D+00-0.279396772385D-08 0.300000000000D+01
    0.212447319336D+05 0.142673969269D+01-0.186264514923D-08 0.000000000000D+00
20 15 05 18 15 45  0.0-0.174636021256D-03-0.181898940355D-11 0.558000000000D+05
    0.235556835938D+05-0.114475250244D+01 0.931322574615D-09 0.000000000000D+00
   -0.483382958984D+04 0.241006851196D+00-0.558793544769D-08 0.200000000000D+01
    0.843008837891D+04 0.334596920013D+01 0.931322574615D-09 0.000000000000D+00
 2 15 05 18 15 45  0.0 0.133591704071D-03 0.181898940355D-11 0.563100000000D+05
   -0.111411186523D+05 0.433385848999D+00 0.931322574615D-09 0.000000000000D+00
    0.146123437500D+04-0.310017585754D+01 0.000000000000D+00-0.400000000000D+01
    0.229411025391D+05 0.405267715454D+00-0.279396772385D-08 0.000000000000D+00
12 15 05 18 15 45  0.0 0.520050525665D-05 0.181898940355D-11 0.564600000000D+05
   -0.190563886719D+05 0.219485282898D+00 0.279396772385D-08 0.000000000000D+00
   -0.167843242188D+05 0.423402786255D+00 0.931322574615D-09-0.100000000000D+01
    0.314363818359D+04 0.353734111786D+01 0.000000000000D+00 0.000000000000D+00
 1 15 05 18 16 15  0.0-0.153687782586D-03 0.000000000000D+00 0.576000000000D+05
   -0.636111962891D+04-0.121379852295D+00 0.465661287308D-08 0.000000000000D+00
   -0.209835703125D+05-0.178468608856D+01-0.279396772385D-08 0.100000000000D+01
    0.130508632813D+05-0.292840099335D+01 0.000000000000D+00 0.000000000000D+00
11 15 05 18 16 15  0.0 0.696443021297D-05 0.000000000000D+00 0.576000000000D+05
   -0.245178466797D+04 0.255078506470D+01 0.279396772385D-08 0.000000000000D+00
   -0.129767646484D+05 0.156499671936D+01-0.279396772385D-08 0.000000000000D+00
    0.217963540039D+05 0.122569370270D+01-0.931322574615D-09 0.000000000000D+00
10 15 05 18 16 15  0.0 0.156573951244D-04 0.000000000000D+00 0.576000000000D+05
    0.140654375000D+05 0.254025554657D+01 0.931322574615D-09 0.000000000000D+00
   -0.266412060547D+04 0.139752960205D+01-0.465661287308D-08-0.700000000000D+01
    0.210658022461D+05-0.152412414551D+01-0.931322574615D-09 0.000000000000D+00
 8 15 05 18 16 15  0.0-0.266730785370D-04 0.000000000000D+00 0.576000000000D+05
    0.187920458984D+04-0.160582542419D+00 0.372529029846D-08 0.000000000000D+00
   -0.251598706055D+05 0.520903587341D+00-0.279396772385D-08 0.600000000000D+01
   -0.375303271484D+04-0.352030944824D+01 0.279396772385D-08 0.000000000000D+00
20 15 05 18 16 15  0.0-0.174640677869D-03-0.181898940355D-11 0.576000000000D+05
    0.208995737305D+05-0.176773548126D+01 0.000000000000D+00 0.000000000000D+00
   -0.393565234375D+04 0.779216766357D+00-0.465661287308D-08 0.200000000000D+01
    0.140479218750D+05 0.285548782349D+01 0.000000000000D+00 0.000000000000D+00
 2 15 05 18 16 15  0.0 0.133595429361D-03 0.181898940355D-11 0.576000000000D+05
   -0.107705000000D+05-0.239887237549D-01 0.186264514923D-08 0.000000000000D+00
   -0.417333007813D+04-0.310887145996D+01-0.931322574615D-09-0.400000000000D+01
    0.227781684570D+05-0.585246086121D+00-0.186264514923D-08 0.000000000000D+00
12 15 05 18 16 15  0.0 0.520516186953D-05 0.181898940355D-11 0.576000000000D+05
   -0.179630004883D+05 0.100630950928D+01 0.372529029846D-08 0.000000000000D+00
   -0.156415883789D+05 0.805610656738D+00 0.000000000000D+00-0.100000000000D+01
    0.930878906250D+04 0.326864147186D+01 0.000000000000D+00 0.000000000000D+00
19 15 05 18 16 15  0.0-0.125921331346D-03 0.000000000000D+00 0.576000000000D+05
    0.797365136719D+04-0.277576541901D+01 0.000000000000D+00 0.000000000000D+00
    0.775406835938D+04 0.147788619995D+01-0.186264514923D-08 0.300000000000D+01
    0.229587685547D+05 0.465411186218D+00-0.279396772385D-08 0.000000000000D+00
21 15 05 18 16 15  0.0 0.121872872114D-04 0.181898940355D-11 0.576900000000D+05
    0.218319477539D+05 0.108360290527D+00 0.931322574615D-09 0.000000000000D+00
   -0.131087749023D+05-0.271577835083D+00-0.465661287308D-08 0.400000000000D+01
   -0.165516015625D+04 0.356903648376D+01 0.279396772385D-08 0.210000000000D+02
11 15 05 18 16 45  0.0 0.696536153555D-05 0.000000000000D+00 0.594000000000D+05
    0.251297412109D+04 0.292311382294D+01 0.186264514923D-08 0.000000000000D+00
   -0.104299033203D+05 0.123403739929D+01-0.465661287308D-08 0.000000000000D+00
    0.231296860352D+05 0.246378898621D+00-0.931322574615D-09 0.000000000000D+00
 1 15 05 18 16 45  0.0-0.153686851263D-03 0.000000000000D+00 0.594000000000D+05
   -0.674454589844D+04-0.267051696777D+00 0.372529029846D-08 0.000000000000D+00
   -0.234877280273D+05-0.977241516113D+00-0.372529029846D-08 0.100000000000D+01
    0.734370996094D+04-0.337174797058D+01 0.931322574615D-09 0.000000000000D+00
 2 15 05 18 16 45  0.0 0.133599154651D-03 0.181898940355D-11 0.594000000000D+05
   -0.112035878906D+05-0.441789627075D+00 0.279396772385D-08 0.000000000000D+00
   -0.954783642578D+04-0.281433677673D+01-0.186264514923D-08-0.400000000000D+01
    0.208608447266D+05-0.153148555756D+01-0.931322574615D-09 0.000000000000D+00
10 15 05 18 16 45  0.0 0.156573951244D-04 0.000000000000D+00 0.594000000000D+05
    0.184477739258D+05 0.227842998505D+01-0.931322574615D-09 0.000000000000D+00
   -0.675819824219D+03 0.811948776245D+00-0.372529029846D-08-0.700000000000D+01
    0.175398349609D+05-0.236816024780D+01-0.931322574615D-09 0.000000000000D+00
20 15 05 18 16 45  0.0-0.174644403160D-03-0.181898940355D-11 0.594000000000D+05
    0.173495083008D+05-0.212938976288D+01 0.000000000000D+00 0.000000000000D+00
   -0.197880322266D+04 0.139988327026D+01-0.372529029846D-08 0.200000000000D+01
    0.185770571289D+05 0.214426708221D+01-0.931322574615D-09 0.000000000000D+00
12 15 05 18 16 45  0.0 0.520888715982D-05 0.181898940355D-11 0.594000000000D+05
   -0.154286450195D+05 0.180132484436D+01 0.372529029846D-08 0.000000000000D+00
   -0.140385727539D+05 0.931924819946D+00-0.186264514923D-08-0.100000000000D+01
    0.147593701172D+05 0.274829196930D+01-0.931322574615D-09 0.000000000000D+00
21 15 05 18 16 45  0.0 0.121910125017D-04 0.181898940355D-11 0.594000000000D+05
    0.213408168945D+05-0.628653526306D+00 0.000000000000D+00 0.000000000000D+00
   -0.131629106445D+05 0.244069099426D+00-0.558793544769D-08 0.400000000000D+01
    0.475011816406D+04 0.350177955627D+01 0.186264514923D-08 0.210000000000D+02
 8 15 05 18 16 45  0.0-0.266730785370D-04 0.000000000000D+00 0.594000000000D+05
    0.172722656250D+04 0.296583175659D-01 0.186264514923D-08 0.000000000000D+00
   -0.234454462891D+05 0.136628437042D+01-0.279396772385D-08 0.600000000000D+01
   -0.986243554688D+04-0.322371578217D+01 0.372529029846D-08 0.000000000000D+00
